NORAD_CAT_ID,OBJECT_NAME,OBJECT_TYPE,EPOCH,MEAN_MOTION,ECCENTRICITY,INCLINATION,RA_OF_ASC_NODE,ARG_OF_PERICENTER,MEAN_ANOMALY,BSTAR,MEAN_MOTION_DOT,MEAN_MOTION_DDOT,TLE_LINE0,TLE_LINE1,TLE_LINE2,SEMIMAJOR_AXIS,PERIOD,APOGEE,PERIGEE,DECAYED
54094.0,STARLINK-5219,PAYLOAD,2024-03-17 22:03:34,15.08842691,0.0001448,53.2167,334.1036,90.9766,269.1392,8.0842e-05,9.99e-06,0.0,0 STARLINK-5219,1 54094U 22136AV  24077.91914572  .00000999  00000-0  80842-4 0  9997,2 54094  53.2167 334.1036 0001448  90.9766 269.1392 15.08842691 78025,6917.872,95.437,540.739,538.735,0.0
54094.0,STARLINK-5219,PAYLOAD,2024-03-18 02:49:43,15.08846894,0.0001545,53.2176,333.2106,101.9959,258.1207,9.9152e-05,1.291e-05,0.0,0 STARLINK-5219,1 54094U 22136AV  24078.11786291  .00001291  00000-0  99152-4 0  9995,2 54094  53.2176 333.2106 0001545 101.9959 258.1207 15.08846894 78053,6917.859,95.437,540.793,538.656,0.0
54094.0,STARLINK-5219,PAYLOAD,2024-03-18 21:54:21,15.08841167,0.0001478,53.2181,329.64,96.1977,263.9183,-2.8059e-05,-7.35e-06,0.0,0 STARLINK-5219,1 54094U 22136AV  24078.91274619 -.00000735  00000-0 -28059-4 0  9991,2 54094  53.2181 329.6400 0001478  96.1977 263.9183 15.08841167 78173,6917.877,95.437,540.764,538.719,0.0
54094.0,STARLINK-5219,PAYLOAD,2024-03-18 23:29:44,15.0884159,0.0001482,53.2182,329.3425,95.749,264.3671,-2.0669e-05,-6.17e-06,0.0,0 STARLINK-5219,1 54094U 22136AV  24078.97898590 -.00000617  00000-0 -20669-4 0  9995,2 54094  53.2182 329.3425 0001482  95.7490 264.3671 15.08841590 78658,6917.876,95.437,540.766,538.715,0.0
54094.0,STARLINK-5219,PAYLOAD,2024-03-19 21:45:07,15.08858651,0.0001378,53.2178,325.1857,102.5187,257.596,0.00027745,4.133e-05,0.0,0 STARLINK-5219,1 54094U 22136AV  24079.90633637  .00004133  00000-0  27745-3 0  9994,2 54094  53.2178 325.1857 0001378 102.5187 257.5960 15.08858651 78796,6917.823,95.436,540.642,538.735,0.0
54094.0,STARLINK-5219,PAYLOAD,2024-03-19 23:20:30,15.08861633,0.0001406,53.2167,324.885,105.756,254.3587,0.00041533,6.332e-05,0.0,0 STARLINK-5219,1 54094U 22136AV  24079.97257579  .00006332  00000-0  41533-3 0  9992,2 54094  53.2167 324.8850 0001406 105.7560 254.3587 15.08861633 78339,6917.814,95.436,540.652,538.707,0.0
54094.0,STARLINK-5219,PAYLOAD,2024-03-20 20:00:32,15.08840233,0.0001446,53.218,321.0237,107.7436,252.3714,7.8373e-05,9.6e-06,0.0,0 STARLINK-5219,1 54094U 22136AV  24080.83370636  .00000960  00000-0  78373-4 0  9993,2 54094  53.2180 321.0237 0001446 107.7436 252.3714 15.08840233 78939,6917.88,95.438,540.745,538.744,0.0
54094.0,STARLINK-5219,PAYLOAD,2024-03-20 23:11:18,15.08834549,0.0001292,53.2175,320.4272,86.1759,273.9381,9.1229e-06,-1.43e-06,0.0,0 STARLINK-5219,1 54094U 22136AV  24080.96618788 -.00000143  00000-0  91229-5 0  9990,2 54094  53.2175 320.4272 0001292  86.1759 273.9381 15.08834549 78484,6917.897,95.438,540.656,538.868,0.0
54094.0,STARLINK-5219,PAYLOAD,2024-03-21 08:43:37,15.08833663,0.0001203,53.2169,318.6431,84.0248,276.0881,0.00017174,2.446e-05,0.0,0 STARLINK-5219,1 54094U 22136AV  24081.36363095  .00002446  00000-0  17174-3 0  9995,2 54094  53.2169 318.6431 0001203  84.0248 276.0881 15.08833663 79010,6917.9,95.438,540.597,538.933,0.0
54094.0,STARLINK-5219,PAYLOAD,2024-03-21 21:26:42,15.08851303,0.0001092,53.2155,316.2629,75.2612,284.8501,0.00077161,0.00012017,0.0,0 STARLINK-5219,1 54094U 22136AV  24081.89354886  .00012017  00000-0  77161-3 0  9998,2 54094  53.2155 316.2629 0001092  75.2612 284.8501 15.08851303 78624,6917.846,95.437,540.466,538.955,0.0
54094.0,STARLINK-5219,PAYLOAD,2024-03-21 23:02:05,15.08858073,0.0001138,53.2158,315.966,75.6014,284.5104,0.00095076,0.00014883,0.0,0 STARLINK-5219,1 54094U 22136AV  24081.95978738  .00014883  00000-0  95076-3 0  9991,2 54094  53.2158 315.9660 0001138  75.6014 284.5104 15.08858073 79100,6917.825,95.436,540.477,538.903,0.0
54094.0,STARLINK-5219,PAYLOAD,2024-03-22 21:17:29,15.08858355,0.000124,53.2155,311.8036,81.7296,278.3836,0.00074204,0.00011547,0.0,0 STARLINK-5219,1 54094U 22136AV  24082.88714664  .00011547  00000-0  74204-3 0  9994,2 54094  53.2155 311.8036 0001240  81.7296 278.3836 15.08858355 79244,6917.824,95.436,540.547,538.831,0.0
54094.0,STARLINK-5219,PAYLOAD,2024-03-23 21:08:17,15.08839672,0.0001353,53.2155,307.3466,94.7481,265.3665,0.001059,0.00016606,0.0,0 STARLINK-5219,1 54094U 22136AV  24083.88075439  .00016606  00000-0  10590-2 0  9993,2 54094  53.2155 307.3466 0001353  94.7481 265.3665 15.08839672 79399,6917.881,95.438,540.682,538.81,0.0
54094.0,STARLINK-5219,PAYLOAD,2024-03-24 08:15:59,15.0884473,0.0001573,53.2163,305.2583,89.3932,270.7241,0.00066785,0.00010358,0.0,0 STARLINK-5219,1 54094U 22136AV  24084.34443450  .00010358  00000-0  66785-3 0  9993,2 54094  53.2163 305.2583 0001573  89.3932 270.7241 15.08844730 79469,6917.866,95.437,540.819,538.643,0.0
54094.0,STARLINK-5219,PAYLOAD,2024-03-24 20:59:03,15.08869869,0.0001569,53.2164,302.8792,91.2803,268.8369,0.0014241,0.00022468,0.0,0 STARLINK-5219,1 54094U 22136AV  24084.87434991  .00022468  00000-0  14241-2 0  9995,2 54094  53.2164 302.8792 0001569  91.2803 268.8369 15.08869869 79075,6917.789,95.436,540.739,538.569,0.0
54094.0,STARLINK-5219,PAYLOAD,2024-03-25 00:09:49,15.08881507,0.0001548,53.2165,302.2822,101.8233,258.2933,0.0017732,0.00028077,0.0,0 STARLINK-5219,1 54094U 22136AV  24085.00682570  .00028077  00000-0  17732-2 0  9999,2 54094  53.2165 302.2822 0001548 101.8233 258.2933 15.08881507 79563,6917.754,95.435,540.689,538.548,0.0
54094.0,STARLINK-5219,PAYLOAD,2024-03-25 20:49:50,15.08871875,0.0001599,53.2165,298.4162,98.8395,261.2778,0.0010437,0.00016376,0.0,0 STARLINK-5219,1 54094U 22136AV  24085.86794059  .00016376  00000-0  10437-2 0  9993,2 54094  53.2165 298.4162 0001599  98.8395 261.2778 15.08871875 79698,6917.783,95.436,540.754,538.542,0.0
54094.0,STARLINK-5219,PAYLOAD,2024-03-26 20:40:38,15.08809476,0.0001461,53.2156,293.9583,67.0716,293.043,0.00012873,1.76e-05,0.0,0 STARLINK-5219,1 54094U 22136AV  24086.86155963  .00001760  00000-0  12873-3 0  9997,2 54094  53.2156 293.9583 0001461  67.0716 293.0430 15.08809476 79841,6917.974,95.439,540.849,538.828,0.0
54094.0,STARLINK-5219,PAYLOAD,2024-03-27 12:34:31,15.08816637,0.0001427,53.2158,290.9851,61.3246,298.789,0.00053965,8.306e-05,0.0,0 STARLINK-5219,1 54094U 22136AV  24087.52397238  .00008306  00000-0  53965-3 0  9994,2 54094  53.2158 290.9851 0001427  61.3246 298.7890 15.08816637 79473,6917.952,95.439,540.804,538.83,0.0
54094.0,STARLINK-5219,PAYLOAD,2024-03-27 20:31:26,15.08840902,0.000138,53.2155,289.4993,62.9286,297.1847,0.0012082,0.00018993,0.0,0 STARLINK-5219,1 54094U 22136AV  24087.85517156  .00018993  00000-0  12082-2 0  9990,2 54094  53.2155 289.4993 0001380  62.9286 297.1847 15.08840902 79993,6917.878,95.437,540.697,538.788,0.0
54094.0,STARLINK-5219,PAYLOAD,2024-03-28 12:25:17,15.08856836,0.0001438,53.215,286.5259,59.5638,300.5496,0.00087504,0.00013672,0.0,0 STARLINK-5219,1 54094U 22136AV  24088.51756779  .00013672  00000-0  87504-3 0  9991,2 54094  53.2150 286.5259 0001438  59.5638 300.5496 15.08856836 79620,6917.829,95.436,540.689,538.699,0.0
54094.0,STARLINK-5219,PAYLOAD,2024-03-28 20:22:13,15.08866583,0.0001375,53.2157,285.0398,66.1909,293.9227,0.00084296,0.00013163,0.0,0 STARLINK-5219,1 54094U 22136AV  24088.84876198  .00013163  00000-0  84296-3 0  9995,2 54094  53.2157 285.0398 0001375  66.1909 293.9227 15.08866583 80146,6917.799,95.436,540.615,538.713,0.0
54094.0,STARLINK-5219,PAYLOAD,2024-03-28 21:57:36,15.0886963,0.0001419,53.215,284.7415,59.475,300.6382,0.00089314,0.00013966,0.0,0 STARLINK-5219,1 54094U 22136AV  24088.91500059  .00013966  00000-0  89314-3 0  9990,2 54094  53.2150 284.7415 0001419  59.4750 300.6382 15.08869630 79684,6917.79,95.436,540.636,538.673,0.0
54094.0,STARLINK-5219,PAYLOAD,2024-03-29 05:54:31,15.08856476,0.0001814,53.2151,283.2536,72.9801,287.139,0.00024526,3.619e-05,0.0,0 STARLINK-5219,1 54094U 22136AV  24089.24620030  .00003619  00000-0  24526-3 0  9997,2 54094  53.2151 283.2536 0001814  72.9801 287.1390 15.08856476 80201,6917.83,95.437,540.95,538.44,0.0
54094.0,STARLINK-5219,PAYLOAD,2024-03-29 21:48:23,15.08845336,0.0002039,53.2153,280.2811,79.0153,281.1068,0.00022504,3.296e-05,0.0,0 STARLINK-5219,1 54094U 22136AV  24089.90860071  .00003296  00000-0  22504-3 0  9996,2 54094  53.2153 280.2811 0002039  79.0153 281.1068 15.08845336 79830,6917.864,95.437,541.14,538.319,0.0
54094.0,STARLINK-5219,PAYLOAD,2024-03-30 12:06:51,15.08839241,0.000117,53.2123,277.6037,75.5822,284.53,8.8261e-05,1.117e-05,0.0,0 STARLINK-5219,1 54094U 22136AV  24090.50476010  .00001117  00000-0  88261-4 0  9993,2 54094  53.2123 277.6037 0001170  75.5822 284.5300 15.08839241 80393,6917.883,95.438,540.557,538.938,0.0
54094.0,STARLINK-5219,PAYLOAD,2024-03-31 11:57:38,15.08839923,0.0001451,53.2126,273.1451,81.0435,279.0722,0.00024173,3.561e-05,0.0,0 STARLINK-5219,1 54094U 22136AV  24091.49836352  .00003561  00000-0  24173-3 0  9997,2 54094  53.2126 273.1451 0001451  81.0435 279.0722 15.08839923 80070,6917.881,95.438,540.749,538.742,0.0
54094.0,STARLINK-5219,PAYLOAD,2024-03-31 18:19:10,15.08843654,0.0001315,53.2123,271.9558,80.3745,279.7395,0.00020686,3.006e-05,0.0,0 STARLINK-5219,1 54094U 22136AV  24091.76332167  .00003006  00000-0  20686-3 0  9991,2 54094  53.2123 271.9558 0001315  80.3745 279.7395 15.08843654 80581,6917.869,95.437,540.644,538.825,0.0
54094.0,STARLINK-5219,PAYLOAD,2024-04-01 11:48:25,15.08842064,0.0001238,53.2174,268.6835,93.7057,266.4077,9.0824e-05,1.158e-05,0.0,0 STARLINK-5219,1 54094U 22136AV  24092.49196349  .00001158  00000-0  90824-4 0  9990,2 54094  53.2174 268.6835 0001238  93.7057 266.4077 15.08842064 80692,6917.874,95.437,540.596,538.883,0.0
54094.0,STARLINK-5219,PAYLOAD,2024-04-02 11:39:13,15.08836535,0.00012,53.2164,264.2227,96.477,263.6359,0.00016869,2.398e-05,0.0,0 STARLINK-5219,1 54094U 22136AV  24093.48556776  .00002398  00000-0  16869-3 0  9997,2 54094  53.2164 264.2227 0001200  96.4770 263.6359 15.08836535 80844,6917.891,95.438,540.586,538.926,0.0
